[{"OBJECT_NAME":"HBTSS-SV1","OBJECT_ID":"2024-028F","EPOCH":"2026-03-09T23:05:25.846944","MEAN_MOTION":14.81553365,"ECCENTRICITY":0.00119303,"INCLINATION":39.9894,"RA_OF_ASC_NODE":316.1636,"ARG_OF_PERICENTER":238.589,"MEAN_ANOMALY":121.3729,"EPHEMERIS_TYPE":0,"CLASSIFICATION_TYPE":"U","NORAD_CAT_ID":58960,"ELEMENT_SET_NO":999,"REV_AT_EPOCH":9236,"BSTAR":0.00047571396,"MEAN_MOTION_DOT":3.673e-5,"MEAN_MOTION_DDOT":0},{"OBJECT_NAME":"SL-14 R\/B","OBJECT_ID":"1990-010B","EPOCH":"2026-03-09T14:52:00.601824","MEAN_MOTION":14.83568711,"ECCENTRICITY":0.0018538,"INCLINATION":82.4987,"RA_OF_ASC_NODE":267.4549,"ARG_OF_PERICENTER":302.6174,"MEAN_ANOMALY":57.3252,"EPHEMERIS_TYPE":0,"CLASSIFICATION_TYPE":"U","NORAD_CAT_ID":20466,"ELEMENT_SET_NO":999,"REV_AT_EPOCH":92847,"BSTAR":6.0041e-5,"MEAN_MOTION_DOT":5.19e-6,"MEAN_MOTION_DDOT":0}]
